{
    "links": {
        "self": "http://www.neowsapp.com/rest/v1/neo/3392307?api_key=iIulBulltgU6a56xZRHN4H3l9WmuAYTsLGpBGhQ2"
    },
    "id": "3392307",
    "neo_reference_id": "3392307",
    "name": "(2007 VJ3)",
    "designation": "2007 VJ3",
    "nasa_jpl_url": "http://ssd.jpl.nasa.gov/sbdb.cgi?sstr=3392307",
    "absolute_magnitude_h": 24.9,
    "estimated_diameter": {
        "kilometers": {
            "estimated_diameter_min": 0.0278326768,
            "estimated_diameter_max": 0.0622357573
        },
        "meters": {
            "estimated_diameter_min": 27.8326768072,
            "estimated_diameter_max": 62.2357573367
        },
        "miles": {
            "estimated_diameter_min": 0.0172944182,
            "estimated_diameter_max": 0.0386714948
        },
        "feet": {
            "estimated_diameter_min": 91.3145593761,
            "estimated_diameter_max": 204.1855621004
        }
    },
    "is_potentially_hazardous_asteroid": false,
    "close_approach_data": [
        {
            "close_approach_date": "2007-10-28",
            "close_approach_date_full": "2007-Oct-28 11:31",
            "epoch_date_close_approach": 1193571060000,
            "relative_velocity": {
                "kilometers_per_second": "16.1110226251",
                "kilometers_per_hour": "57999.6814503665",
                "miles_per_hour": "36038.7465100902"
            },
            "miss_distance": {
                "astronomical": "0.0122776852",
                "lunar": "4.7760195428",
                "kilometers": "1836715.554450524",
                "miles": "1141282.1235802712"
            },
            "orbiting_body": "Earth"
        }
    ],
    "orbital_data": {
        "orbit_id": "10",
        "orbit_determination_date": "2017-04-06 09:05:25",
        "first_observation_date": "2007-11-02",
        "last_observation_date": "2007-11-09",
        "data_arc_in_days": 7,
        "observations_used": 44,
        "orbit_uncertainty": "8",
        "minimum_orbit_intersection": ".0110757",
        "jupiter_tisserand_invariant": "3.428",
        "epoch_osculation": "2454408.5",
        "eccentricity": ".6150003167271266",
        "semi_major_axis": "2.129087774818602",
        "inclination": "12.65432383979167",
        "ascending_node_longitude": "37.4986712585891",
        "orbital_period": "1134.720174149506",
        "perihelion_distance": ".8196981189653085",
        "perihelion_argument": "299.3919940483664",
        "aphelion_distance": "3.438477430671895",
        "perihelion_time": "2454362.614221681696",
        "mean_anomaly": "14.55766855204689",
        "mean_motion": ".3172588345578914",
        "equinox": "J2000",
        "orbit_class": {
            "orbit_class_type": "APO",
            "orbit_class_description": "Near-Earth asteroid orbits which cross the Earth’s orbit similar to that of 1862 Apollo",
            "orbit_class_range": "a (semi-major axis) > 1.0 AU; q (perihelion) < 1.017 AU"
        }
    },
    "is_sentry_object": false
}